OBJECT_NAME,OBJECT_ID,EPOCH,MEAN_MOTION,ECCENTRICITY,INCLINATION,RA_OF_ASC_NODE,ARG_OF_PERICENTER,MEAN_ANOMALY,EPHEMERIS_TYPE,CLASSIFICATION_TYPE,NORAD_CAT_ID,ELEMENT_SET_NO,REV_AT_EPOCH,BSTAR,MEAN_MOTION_DOT,MEAN_MOTION_DDOT
JILIN-1 GAOFEN 3A,2019-032C,2026-06-26T06:35:41.455104,15.32824613,.00059267,44.9761,306.9154,340.2140,19.8514,0,U,44312,999,38923,.39392719E-3,.12448E-3,0
WT 1B,2019-032G,2026-06-26T05:25:09.430176,15.27348337,.00100944,44.9718,11.5989,294.4165,65.5664,0,U,44316,999,38846,.44753091E-3,.1195E-3,0
PROX-1,2019-036A,2026-06-25T23:02:24.717984,14.90813570,.00057726,23.9956,55.6394,136.4789,223.6167,0,U,44339,999,37478,.15111093E-2,.1554E-3,0
NPSAT1,2019-036B,2026-06-26T06:04:11.105184,14.74650996,.00070159,23.9971,158.7095,314.1237,45.8682,0,U,44340,999,37383,.83270689E-3,.5929E-4,0
FORMOSAT 7-3,2019-036E,2026-06-26T04:07:16.040352,15.09854430,.00008556,23.9981,116.6979,44.8673,315.1900,0,U,44343,999,38460,.25751876E-3,.4625E-4,0
FORMOSAT 7-1,2019-036L,2026-06-25T17:09:28.573920,14.96540072,.00003802,23.9995,334.9020,298.2034,61.8428,0,U,44349,999,38593,.22011204E-3,.2867E-4,0
FORMOSAT 7-4,2019-036M,2026-06-26T06:30:00.992448,14.96533997,.00008917,23.9997,33.2586,311.2636,48.7788,0,U,44350,999,38543,.21999971E-3,.2866E-4,0
FORMOSAT 7-2,2019-036N,2026-06-25T21:26:06.277344,14.96530506,.00003522,23.9982,90.1194,295.3986,64.6479,0,U,44351,999,38489,.18232957E-3,.2426E-4,0
FORMOSAT 7-6,2019-036Q,2026-06-25T13:25:34.785696,14.96543584,.000101,23.9976,273.1878,177.3546,182.6961,0,U,44353,999,38307,.17873E-3,.2385E-4,0
FORMOSAT 7-5,2019-036V,2026-06-25T09:40:45.978816,14.96545612,.0000052,23.9969,212.9889,143.3743,216.6762,0,U,44358,999,38358,.16408E-3,.2214E-4,0
METEOR-M2 2,2019-038A,2026-06-26T05:40:05.401632,14.24368474,.00017055,98.9146,164.6551,35.4384,324.6907,0,U,44387,999,36258,.11200192E-3,.213E-5,0
GLOBAL-4,2019-054E,2026-06-25T12:06:29.447136,15.65103918,.0004789,45.0034,188.3824,29.9656,330.1514,0,U,44499,999,38166,.55663E-3,.56303E-3,0
ZY-1 02D,2019-059A,2026-06-26T06:28:43.569408,14.35263579,.00042104,98.6725,238.7332,3.9298,356.1920,0,U,44528,999,35564,.94546581E-4,.226E-5,0
TAURUS-1 (JINNIUZUO 1),2019-059C,2026-06-26T06:46:58.335168,14.72184480,.00071821,98.6419,342.6754,282.7853,77.2550,0,U,44530,999,35998,.13400685E-2,.8403E-4,0
ZHUHAI-1 03B,2019-060C,2026-06-26T06:15:34.441920,15.54576367,.00074939,97.5529,335.5190,279.8808,80.1599,0,U,44536,999,37773,.48434622E-3,.31986E-3,0
ZHUHAI-1 03D,2019-060E,2026-06-26T07:50:15.055296,15.50255333,.00066554,97.5387,327.6304,262.8984,97.1510,0,U,44538,999,37749,.60579283E-3,.34285E-3,0
ZHUHAI-1 03E,2019-060F,2026-06-26T07:59:55.792032,15.41343477,.00051596,97.5614,327.5996,0.1914,359.9334,0,U,44539,999,37717,.42916612E-3,.17836E-3,0
GAOFEN-7,2019-072A,2026-06-26T06:37:27.717600,15.21325683,.00178712,97.2429,238.3996,10.6662,349.4950,0,U,44703,999,36902,.18857525E-3,.4171E-4,0
JILIN-1 GAOFEN 2A,2019-075A,2026-06-26T05:38:55.565376,15.39543547,.00069658,97.4969,261.2375,60.4423,299.7516,0,U,44777,999,36627,.38624985E-3,.15119E-3,0
NINGXIA-1 1,2019-076A,2026-06-26T07:15:41.534784,14.02039472,.00112145,45.0044,139.1158,206.2814,153.7453,0,U,44779,999,33913,.42700635E-4,-.64E-6,0
NINGXIA-1 5,2019-076E,2026-06-26T05:51:46.579968,14.02087716,.00106865,45.0038,138.7139,196.8030,163.2452,0,U,44783,999,33904,.11270077E-3,.44E-6,0
KL-ALPHA A,2019-077A,2026-06-26T06:28:42.801312,13.56043096,.00133794,88.9249,221.5718,83.8544,276.4134,0,U,44785,999,32696,-.11604672E-3,-.69E-6,0
CARTOSAT-3,2019-081A,2026-06-26T07:29:37.027104,15.19201502,.00131806,97.4308,239.0328,118.9919,241.2639,0,U,44804,999,36485,.27419458E-3,.5716E-4,0
JILIN-1 GAOFEN 2B,2019-086A,2026-06-26T05:27:31.612608,15.20801963,.00124566,97.4884,249.1616,289.0139,70.9747,0,U,44836,999,36186,.30773984E-3,.6729E-4,0
TIANQIN 1 (CAS-6),2019-093A,2026-06-26T06:08:40.034688,14.95481105,.00118964,97.7812,261.0306,31.6879,328.5055,0,U,44879,999,35340,.43115618E-3,.4721E-4,0
ETRSS-1,2019-093B,2026-06-26T06:14:41.515872,14.95919913,.00121122,97.7832,261.5023,32.1307,328.0650,0,U,44880,999,35341,.44322055E-3,.4911E-4,0
TIANYAN 01,2019-093C,2026-06-26T06:23:49.072416,14.86530317,.00149371,97.7531,249.2774,59.7855,300.4838,0,U,44881,999,35276,.4343515E-4,.332E-5,0
TIANYAN 02,2019-093D,2026-06-26T07:01:56.331840,15.05320041,.00132291,97.7928,272.1703,356.9607,3.1537,0,U,44882,999,35398,.49134776E-3,.6984E-4,0
