JILIN-1 GAOFEN 3A       
1 44312U 19032C   26177.27478536  .00012448  00000+0  39393-3 0  9992
2 44312  44.9761 306.9154 0005926 340.2140  19.8514 15.32824613389239
WT 1B                   
1 44316U 19032G   26177.22580359  .00011950  00000+0  44753-3 0  9991
2 44316  44.9718  11.5989 0010094 294.4165  65.5664 15.27348337388465
PROX-1                  
1 44339U 19036A   26176.96000831  .00015540  00000+0  15111-2 0  9996
2 44339  23.9956  55.6394 0005772 136.4789 223.6167 14.90813570374784
NPSAT1                  
1 44340U 19036B   26177.25290631  .00005929  00000+0  83271-3 0  9993
2 44340  23.9971 158.7095 0007015 314.1237  45.8682 14.74650996373835
FORMOSAT 7-3            
1 44343U 19036E   26177.17171343  .00004625  00000+0  25752-3 0  9997
2 44343  23.9981 116.6979 0000855  44.8673 315.1900 15.09854430384600
FORMOSAT 7-1            
1 44349U 19036L   26176.71491405  .00002867  00000+0  22011-3 0  9997
2 44349  23.9995 334.9020 0000380 298.2034  61.8428 14.96540072385938
FORMOSAT 7-4            
1 44350U 19036M   26177.27084482  .00002866  00000+0  22000-3 0  9991
2 44350  23.9997  33.2586 0000891 311.2636  48.7788 14.96533997385435
FORMOSAT 7-2            
1 44351U 19036N   26176.89312821  .00002426  00000+0  18233-3 0  9995
2 44351  23.9982  90.1194 0000352 295.3986  64.6479 14.96530506384895
FORMOSAT 7-6            
1 44353U 19036Q   26176.55943039  .00002385  00000+0  17873-3 0  9994
2 44353  23.9976 273.1878 0001010 177.3546 182.6961 14.96543584383071
FORMOSAT 7-5            
1 44358U 19036V   26176.40330994  .00002214  00000+0  16408-3 0  9997
2 44358  23.9969 212.9889 0000052 143.3743 216.6762 14.96545612383585
METEOR-M2 2             
1 44387U 19038A   26177.23617363  .00000213  00000+0  11200-3 0  9993
2 44387  98.9146 164.6551 0001705  35.4384 324.6907 14.24368474362581
GLOBAL-4                
1 44499U 19054E   26176.50450749  .00056303  00000+0  55663-3 0  9999
2 44499  45.0034 188.3824 0004789  29.9656 330.1514 15.65103918381667
ZY-1 02D                
1 44528U 19059A   26177.26994872  .00000226  00000+0  94547-4 0  9999
2 44528  98.6725 238.7332 0004210   3.9298 356.1920 14.35263579355642
TAURUS-1 (JINNIUZUO 1)  
1 44530U 19059C   26177.28261962  .00008403  00000+0  13401-2 0  9994
2 44530  98.6419 342.6754 0007182 282.7853  77.2550 14.72184480359988
ZHUHAI-1 03B            
1 44536U 19060C   26177.26081530  .00031986  00000+0  48435-3 0  9999
2 44536  97.5529 335.5190 0007493 279.8808  80.1599 15.54576367377730
ZHUHAI-1 03D            
1 44538U 19060E   26177.32656314  .00034285  00000+0  60579-3 0  9994
2 44538  97.5387 327.6304 0006655 262.8984  97.1510 15.50255333377496
ZHUHAI-1 03E            
1 44539U 19060F   26177.33328463  .00017836  00000+0  42917-3 0  9996
2 44539  97.5614 327.5996 0005159   0.1914 359.9334 15.41343477377175
GAOFEN-7                
1 44703U 19072A   26177.27601525  .00004171  00000+0  18858-3 0  9993
2 44703  97.2429 238.3996 0017871  10.6662 349.4950 15.21325683369028
JILIN-1 GAOFEN 2A       
1 44777U 19075A   26177.23536534  .00015119  00000+0  38625-3 0  9998
2 44777  97.4969 261.2375 0006965  60.4423 299.7516 15.39543547366275
NINGXIA-1 1             
1 44779U 19076A   26177.30256406 -.00000064  00000+0  42701-4 0  9991
2 44779  45.0044 139.1158 0011214 206.2814 153.7453 14.02039472339139
NINGXIA-1 5             
1 44783U 19076E   26177.24428912  .00000044  00000+0  11270-3 0  9995
2 44783  45.0038 138.7139 0010686 196.8030 163.2452 14.02087716339046
KL-ALPHA A              
1 44785U 19077A   26177.26993983 -.00000069  00000+0 -11605-3 0  9996
2 44785  88.9249 221.5718 0013379  83.8544 276.4134 13.56043096326961
CARTOSAT-3              
1 44804U 19081A   26177.31223411  .00005716  00000+0  27419-3 0  9993
2 44804  97.4308 239.0328 0013180 118.9919 241.2639 15.19201502364850
JILIN-1 GAOFEN 2B       
1 44836U 19086A   26177.22744922  .00006729  00000+0  30774-3 0  9991
2 44836  97.4884 249.1616 0012456 289.0139  70.9747 15.20801963361869
TIANQIN 1 (CAS-6)       
1 44879U 19093A   26177.25601892  .00004721  00000+0  43116-3 0  9991
2 44879  97.7812 261.0306 0011896  31.6879 328.5055 14.95481105353406
ETRSS-1                 
1 44880U 19093B   26177.26020273  .00004911  00000+0  44322-3 0  9993
2 44880  97.7832 261.5023 0012112  32.1307 328.0650 14.95919913353415
TIANYAN 01              
1 44881U 19093C   26177.26654019  .00000332  00000+0  43435-4 0  9993
2 44881  97.7531 249.2774 0014937  59.7855 300.4838 14.86530317352764
TIANYAN 02              
1 44882U 19093D   26177.29301310  .00006984  00000+0  49135-3 0  9991
2 44882  97.7928 272.1703 0013229 356.9607   3.1537 15.05320041353983
